start=new Date('2021-09-27T00:00:00.000Z').valueOf();
sats=[{"INCLINATION":"53.0558","CENTER_NAME":"EARTH","RCS_SIZE":"LARGE","MEAN_ANOMALY":"301.0758","COUNTRY_CODE":"US","BSTAR":"0.00001556600000","OBJECT_ID":"2021-041AK","MEAN_MOTION_DOT":"-0.00000050","ELEMENT_SET_NO":"999","TLE_LINE1":"1 48586U 21041AK  21269.63927522 -.00000050  00000-0  15566-4 0  9998","NORAD_CAT_ID":"48586","EPOCH":"2021-09-26T15:20:33.379008","PERIOD":"95.593","CLASSIFICATION_TYPE":"U","TLE_LINE2":"2 48586  53.0558 236.7487 0001437  59.0372 301.0758 15.06393762 20128","EPHEMERIS_TYPE":"0","GP_ID":"185583837","REV_AT_EPOCH":"2012","SITE":"AFETR","FILE":"3129566","RA_OF_ASC_NODE":"236.7487","APOAPSIS":"548.228","TIME_SYSTEM":"UTC","OBJECT_NAME":"STARLINK-2241","ECCENTRICITY":"0.00014370","PERIAPSIS":"546.238","OBJECT_TYPE":"PAYLOAD","SEMIMAJOR_AXIS":"6925.368","DECAY_DATE":null,"ARG_OF_PERICENTER":"59.0372","REF_FRAME":"TEME","LAUNCH_DATE":"2021-05-15","MEAN_MOTION_DDOT":"0.0000000000000","MEAN_ELEMENT_THEORY":"SGP4","MEAN_MOTION":"15.06393762"},{"REF_FRAME":"TEME","LAUNCH_DATE":"2021-05-15","MEAN_ELEMENT_THEORY":"SGP4","MEAN_MOTION":"15.06403119","MEAN_MOTION_DDOT":"0.0000000000000","ARG_OF_PERICENTER":"61.3191","SITE":"AFETR","FILE":"3129566","RA_OF_ASC_NODE":"236.7113","APOAPSIS":"548.288","GP_ID":"185583082","REV_AT_EPOCH":"2012","PERIAPSIS":"546.120","OBJECT_TYPE":"PAYLOAD","SEMIMAJOR_AXIS":"6925.339","DECAY_DATE":null,"TIME_SYSTEM":"UTC","OBJECT_NAME":"STARLINK-2242","ECCENTRICITY":"0.00015650","CENTER_NAME":"EARTH","RCS_SIZE":"LARGE","MEAN_ANOMALY":"298.7955","COUNTRY_CODE":"US","BSTAR":"0.00017118000000","OBJECT_ID":"2021-041AL","INCLINATION":"53.0540","NORAD_CAT_ID":"48587","EPOCH":"2021-09-26T15:29:48.086880","PERIOD":"95.592","TLE_LINE2":"2 48587  53.0540 236.7113 0001565  61.3191 298.7955 15.06403119 20122","EPHEMERIS_TYPE":"0","CLASSIFICATION_TYPE":"U","MEAN_MOTION_DOT":"0.00002269","ELEMENT_SET_NO":"999","TLE_LINE1":"1 48587U 21041AL  21269.64569545  .00002269  00000-0  17118-3 0  9994"},{"REV_AT_EPOCH":"2026","GP_ID":"185583622","APOAPSIS":"548.122","RA_OF_ASC_NODE":"226.8409","FILE":"3129566","SITE":"AFETR","ECCENTRICITY":"0.00013350","TIME_SYSTEM":"UTC","OBJECT_NAME":"STARLINK-2244","DECAY_DATE":null,"OBJECT_TYPE":"PAYLOAD","SEMIMAJOR_AXIS":"6925.332","PERIAPSIS":"546.273","INCLINATION":"53.0560","OBJECT_ID":"2021-041AM","BSTAR":"0.00000263020000","MEAN_ANOMALY":"305.5890","COUNTRY_CODE":"US","RCS_SIZE":"LARGE","CENTER_NAME":"EARTH","TLE_LINE1":"1 48588U 21041AM  21269.62176521 -.00000242  00000-0  26302-5 0  9998","ELEMENT_SET_NO":"999","MEAN_MOTION_DOT":"-0.00000242","TLE_LINE2":"2 48588  53.0560 226.8409 0001335  54.5224 305.5890 15.06405376 20266","EPHEMERIS_TYPE":"0","CLASSIFICATION_TYPE":"U","PERIOD":"95.592","EPOCH":"2021-09-26T14:55:20.514144","NORAD_CAT_ID":"48588","LAUNCH_DATE":"2021-05-15","REF_FRAME":"TEME","MEAN_MOTION_DDOT":"0.0000000000000","MEAN_MOTION":"15.06405376","MEAN_ELEMENT_THEORY":"SGP4","ARG_OF_PERICENTER":"54.5224"},{"TLE_LINE1":"1 48589U 21041AN  21269.61807964  .00000356  00000-0  42753-4 0  9992","ELEMENT_SET_NO":"999","MEAN_MOTION_DOT":"0.00000356","TLE_LINE2":"2 48589  53.0547 226.8523 0001119  31.0369 329.0686 15.06401333 20262","CLASSIFICATION_TYPE":"U","EPHEMERIS_TYPE":"0","PERIOD":"95.592","EPOCH":"2021-09-26T14:50:02.080896","NORAD_CAT_ID":"48589","INCLINATION":"53.0547","OBJECT_ID":"2021-041AN","BSTAR":"0.00004275300000","COUNTRY_CODE":"US","MEAN_ANOMALY":"329.0686","RCS_SIZE":"LARGE","CENTER_NAME":"EARTH","ECCENTRICITY":"0.00011190","TIME_SYSTEM":"UTC","OBJECT_NAME":"STARLINK-2245","DECAY_DATE":null,"SEMIMAJOR_AXIS":"6925.344","OBJECT_TYPE":"PAYLOAD","PERIAPSIS":"546.435","REV_AT_EPOCH":"2026","GP_ID":"185583514","APOAPSIS":"547.984","RA_OF_ASC_NODE":"226.8523","SITE":"AFETR","FILE":"3129566","ARG_OF_PERICENTER":"31.0369","MEAN_MOTION_DDOT":"0.0000000000000","MEAN_MOTION":"15.06401333","MEAN_ELEMENT_THEORY":"SGP4","LAUNCH_DATE":"2021-05-15","REF_FRAME":"TEME"},{"ARG_OF_PERICENTER":"54.0850","MEAN_MOTION_DDOT":"0.0000000000000","MEAN_ELEMENT_THEORY":"SGP4","MEAN_MOTION":"15.06405933","REF_FRAME":"TEME","LAUNCH_DATE":"2021-05-15","MEAN_MOTION_DOT":"0.00000485","ELEMENT_SET_NO":"999","TLE_LINE1":"1 48590U 21041AP  21269.64295964  .00000485  00000-0  51473-4 0  9990","NORAD_CAT_ID":"48590","EPOCH":"2021-09-26T15:25:51.712896","PERIOD":"95.592","TLE_LINE2":"2 48590  53.0549 236.7291 0001339  54.0850 306.0263 15.06405933 20123","CLASSIFICATION_TYPE":"U","EPHEMERIS_TYPE":"0","INCLINATION":"53.0549","CENTER_NAME":"EARTH","RCS_SIZE":"LARGE","MEAN_ANOMALY":"306.0263","COUNTRY_CODE":"US","BSTAR":"0.00005147300000","OBJECT_ID":"2021-041AP","TIME_SYSTEM":"UTC","OBJECT_NAME":"STARLINK-2246","ECCENTRICITY":"0.00013390","PERIAPSIS":"546.268","OBJECT_TYPE":"PAYLOAD","SEMIMAJOR_AXIS":"6925.330","DECAY_DATE":null,"GP_ID":"185583730","REV_AT_EPOCH":"2012","FILE":"3129566","SITE":"AFETR","RA_OF_ASC_NODE":"236.7291","APOAPSIS":"548.123"},{"TLE_LINE2":"2 48591  53.0552 226.8837 0001399  40.9646 319.1448 15.06394682 21160","CLASSIFICATION_TYPE":"U","EPHEMERIS_TYPE":"0","PERIOD":"95.592","EPOCH":"2021-09-26T14:39:25.575552","NORAD_CAT_ID":"48591","TLE_LINE1":"1 48591U 21041AQ  21269.61071268  .00000150  00000-0  29000-4 0  9997","ELEMENT_SET_NO":"999","MEAN_MOTION_DOT":"0.00000150","OBJECT_ID":"2021-041AQ","BSTAR":"0.00002900000000","COUNTRY_CODE":"US","MEAN_ANOMALY":"319.1448","RCS_SIZE":"LARGE","CENTER_NAME":"EARTH","INCLINATION":"53.0552","DECAY_DATE":null,"SEMIMAJOR_AXIS":"6925.365","OBJECT_TYPE":"PAYLOAD","PERIAPSIS":"546.261","ECCENTRICITY":"0.00013990","TIME_SYSTEM":"UTC","OBJECT_NAME":"STARLINK-2248","APOAPSIS":"548.199","RA_OF_ASC_NODE":"226.8837","SITE":"AFETR","FILE":"3129566","REV_AT_EPOCH":"2116","GP_ID":"185583406","ARG_OF_PERICENTER":"40.9646","MEAN_ELEMENT_THEORY":"SGP4","MEAN_MOTION":"15.06394682","MEAN_MOTION_DDOT":"0.0000000000000","LAUNCH_DATE":"2021-05-15","REF_FRAME":"TEME"},{"REF_FRAME":"TEME","LAUNCH_DATE":"2021-05-15","MEAN_MOTION_DDOT":"0.0000000000000","MEAN_ELEMENT_THEORY":"SGP4","MEAN_MOTION":"15.06400167","ARG_OF_PERICENTER":"56.3713","GP_ID":"185583298","REV_AT_EPOCH":"2012","SITE":"AFETR","FILE":"3129566","RA_OF_ASC_NODE":"236.8834","APOAPSIS":"547.919","TIME_SYSTEM":"UTC","OBJECT_NAME":"STARLINK-2249","ECCENTRICITY":"0.00010200","PERIAPSIS":"546.507","SEMIMAJOR_AXIS":"6925.348","OBJECT_TYPE":"PAYLOAD","DECAY_DATE":null,"INCLINATION":"53.0558","CENTER_NAME":"EARTH","RCS_SIZE":"MEDIUM","COUNTRY_CODE":"US","MEAN_ANOMALY":"303.7373","OBJECT_ID":"2021-041AR","BSTAR":"0.00002154700000","MEAN_MOTION_DOT":"0.00000040","ELEMENT_SET_NO":"999","TLE_LINE1":"1 48592U 21041AR  21269.60979242  .00000040  00000-0  21547-4 0  9992","NORAD_CAT_ID":"48592","EPOCH":"2021-09-26T14:38:06.065088","PERIOD":"95.592","CLASSIFICATION_TYPE":"U","TLE_LINE2":"2 48592  53.0558 236.8834 0001020  56.3713 303.7373 15.06400167 20129","EPHEMERIS_TYPE":"0"},{"EPOCH":"2021-09-26T14:48:42.133248","NORAD_CAT_ID":"48593","EPHEMERIS_TYPE":"0","TLE_LINE2":"2 48593  53.0551 236.8453 0001154  45.6098 314.4985 15.06407251 20124","CLASSIFICATION_TYPE":"U","PERIOD":"95.592","ELEMENT_SET_NO":"999","MEAN_MOTION_DOT":"0.00000600","TLE_LINE1":"1 48593U 21041AS  21269.61715432  .00000600  00000-0  59168-4 0  9995","MEAN_ANOMALY":"314.4985","COUNTRY_CODE":"US","CENTER_NAME":"EARTH","RCS_SIZE":"LARGE","BSTAR":"0.00005916800000","OBJECT_ID":"2021-041AS","INCLINATION":"53.0551","PERIAPSIS":"546.392","DECAY_DATE":null,"SEMIMAJOR_AXIS":"6925.326","OBJECT_TYPE":"PAYLOAD","TIME_SYSTEM":"UTC","OBJECT_NAME":"STARLINK-2250","ECCENTRICITY":"0.00011540","SITE":"AFETR","FILE":"3129566","APOAPSIS":"547.991","RA_OF_ASC_NODE":"236.8453","REV_AT_EPOCH":"2012","GP_ID":"185583190","ARG_OF_PERICENTER":"45.6098","MEAN_ELEMENT_THEORY":"SGP4","MEAN_MOTION":"15.06407251","MEAN_MOTION_DDOT":"0.0000000000000","REF_FRAME":"TEME","LAUNCH_DATE":"2021-05-15"},{"LAUNCH_DATE":"2021-05-15","REF_FRAME":"TEME","MEAN_MOTION_DDOT":"0.0000000000000","MEAN_MOTION":"15.06395064","MEAN_ELEMENT_THEORY":"SGP4","ARG_OF_PERICENTER":"42.3673","GP_ID":"185583838","REV_AT_EPOCH":"382","RA_OF_ASC_NODE":"205.1301","APOAPSIS":"548.530","FILE":"3129566","SITE":"AFETR","ECCENTRICITY":"0.00018790","TIME_SYSTEM":"UTC","OBJECT_NAME":"STARLINK-2251","SEMIMAJOR_AXIS":"6925.364","OBJECT_TYPE":"PAYLOAD","DECAY_DATE":null,"PERIAPSIS":"545.927","INCLINATION":"53.0518","BSTAR":"-0.00005901100000","OBJECT_ID":"2021-041AT","RCS_SIZE":"LARGE","CENTER_NAME":"EARTH","MEAN_ANOMALY":"125.0688","COUNTRY_CODE":"US","TLE_LINE1":"1 48594U 21041AT  21270.00001157 -.00001160  00000-0 -59011-4 0  9994","MEAN_MOTION_DOT":"-0.00001160","ELEMENT_SET_NO":"999","PERIOD":"95.592","EPHEMERIS_TYPE":"0","TLE_LINE2":"2 48594  53.0518 205.1301 0001879  42.3673 125.0688 15.06395064  3828","CLASSIFICATION_TYPE":"U","NORAD_CAT_ID":"48594","EPOCH":"2021-09-27T00:00:00.999648"},{"INCLINATION":"53.0550","RCS_SIZE":"LARGE","CENTER_NAME":"EARTH","MEAN_ANOMALY":"293.0383","COUNTRY_CODE":"US","OBJECT_ID":"2021-041AU","BSTAR":"0.00011080000000","MEAN_MOTION_DOT":"0.00001369","ELEMENT_SET_NO":"999","TLE_LINE1":"1 48595U 21041AU  21269.20067225  .00001369  00000-0  11080-3 0  9995","NORAD_CAT_ID":"48595","EPOCH":"2021-09-26T04:48:58.082400","PERIOD":"95.592","TLE_LINE2":"2 48595  53.0550 238.7161 0001555  67.0770 293.0383 15.06399281 21333","EPHEMERIS_TYPE":"0","CLASSIFICATION_TYPE":"U","GP_ID":"185518852","REV_AT_EPOCH":"2133","SITE":"AFETR","FILE":"3128773","RA_OF_ASC_NODE":"238.7161","APOAPSIS":"548.293","OBJECT_NAME":"STARLINK-2252","TIME_SYSTEM":"UTC","ECCENTRICITY":"0.00015550","PERIAPSIS":"546.139","SEMIMAJOR_AXIS":"6925.351","OBJECT_TYPE":"PAYLOAD","DECAY_DATE":null,"ARG_OF_PERICENTER":"67.0770","REF_FRAME":"TEME","LAUNCH_DATE":"2021-05-15","MEAN_MOTION_DDOT":"0.0000000000000","MEAN_ELEMENT_THEORY":"SGP4","MEAN_MOTION":"15.06399281"}];
